     2.100          NAVIGATION                              RINEX VERSION / TYPE
fic2rin                                 11/06/2014 00:21:03 PGM / RUN BY / DATE
                                                            END OF HEADER
25 14 11  5 10  0  0.0  .156131573021D-04 -.159161572810D-11  .000000000000D+00
     .300000000000D+02 -.790000000000D+02  .391730602866D-08 -.226270753981D+01
    -.408291816711D-05  .377004407346D-02  .126175582409D-04  .515377579498D+04
     .295200000000D+06  .521540641785D-07 -.395740678565D+00 -.614672899246D-07
     .977602805287D+00  .145343750000D+03  .706892787368D+00 -.763460372618D-08
     .550022910662D-10  .100000000000D+01  .181700000000D+04  .000000000000D+00
     .240000000000D+01  .000000000000D+00  .512227416039D-08  .300000000000D+02
     .288006000000D+06  .400000000000D+01
26 14 11  5 10  0  0.0 -.112458597869D-03 -.129602995003D-10  .000000000000D+00
     .430000000000D+02  .106687500000D+03  .449125850752D-08  .413576283204D+00
     .557862222195D-05  .212907918030D-01  .516697764397D-05  .515368603897D+04
     .295200000000D+06 -.309199094772D-06 -.238983653408D+01 -.186264514923D-07
     .973493086580D+00  .288750000000D+03  .129753654799D+01 -.866964683988D-08
     .355014787791D-09  .100000000000D+01  .181700000000D+04  .000000000000D+00
     .240000000000D+01  .000000000000D+00 -.651925802231D-08  .430000000000D+02
     .288006000000D+06  .400000000000D+01
27 14 11  5 10  0  0.0  .275648199022D-04  .284217094304D-11  .000000000000D+00
     .350000000000D+02  .533437500000D+02  .475162649574D-08  .158210188060D+01
     .287033617496D-05  .156400667038D-02  .764243304729D-05  .515367922020D+04
     .295200000000D+06  .279396772385D-07  .649549617080D+00  .106170773506D-06
     .965117138877D+00  .233062500000D+03  .299145003859D+00 -.820355599675D-08
     .540379651839D-09  .100000000000D+01  .181700000000D+04  .000000000000D+00
     .240000000000D+01  .000000000000D+00  .139698386192D-08  .350000000000D+02
     .288006000000D+06  .400000000000D+01
28 14 11  5 10  0  0.0  .396210700274D-03  .261479726760D-11  .000000000000D+00
     .410000000000D+02 -.724062500000D+02  .351514641996D-08  .249292737049D+01
    -.371225178242D-05  .195180295268D-01  .139866024256D-04  .515369131279D+04
     .295200000000D+06  .191852450371D-06 -.327287235021D+00 -.135973095894D-06
     .988149381097D+00  .119562500000D+03 -.170296625735D+01 -.716779856758D-08
     .214294640518D-10  .100000000000D+01  .181700000000D+04  .000000000000D+00
     .240000000000D+01  .000000000000D+00 -.111758708954D-07  .410000000000D+02
     .288006000000D+06  .400000000000D+01
29 14 11  5 10  0  0.0  .571233220398D-03  .250111042988D-11  .000000000000D+00
     .830000000000D+02  .508125000000D+02  .456911889357D-08 -.186729864668D+01
     .256486237049D-05  .112924969289D-02  .753253698349D-05  .515360350800D+04
     .295200000000D+06 -.968575477600D-07  .705275140832D+00 -.260770320892D-07
     .971035164769D+00  .237031250000D+03 -.834819082229D+00 -.806247869174D-08
     .511092717635D-09  .100000000000D+01  .181700000000D+04  .000000000000D+00
     .240000000000D+01  .000000000000D+00 -.977888703346D-08  .830000000000D+02
     .288006000000D+06  .400000000000D+01
31 14 11  5 10  0  0.0  .329531263560D-03 -.568434188608D-12  .000000000000D+00
     .880000000000D+02 -.788750000000D+02  .451697386438D-08 -.113058730104D+01
    -.436604022980D-05  .818065053318D-02  .336766242981D-05  .515365923882D+04
     .295200000000D+06 -.689178705215D-07 -.141002450891D+01 -.124797224998D-06
     .976758239273D+00  .324375000000D+03 -.622047139012D+00 -.840999316712D-08
    -.156077929844D-09  .100000000000D+01  .181700000000D+04  .000000000000D+00
     .240000000000D+01  .000000000000D+00 -.135041773319D-07  .880000000000D+02
     .288006000000D+06  .400000000000D+01
32 14 11  5 10  0  0.0 -.301163177937D-03  .898126018001D-11  .000000000000D+00
     .100000000000D+02  .384062500000D+02  .453483175109D-08 -.624670500765D+00
     .192597508430D-05  .114176656352D-01  .123959034681D-04  .515362971115D+04
     .295200000000D+06  .221654772758D-06  .283079967655D+01 -.160187482834D-06
     .947755622100D+00  .135812500000D+03 -.437155778207D-01 -.804247785863D-08
    -.210008747707D-09  .100000000000D+01  .181700000000D+04  .000000000000D+00
     .240000000000D+01  .000000000000D+00 -.325962901115D-08  .100000000000D+02
     .288006000000D+06  .400000000000D+01
 9 14 11  5  9 59 44.0 -.420492142439D-06 -.659383658785D-11  .000000000000D+00
     .100000000000D+01  .123062500000D+03  .461162066394D-08  .148480255839D+00
     .642612576485D-05  .280322507024D-03  .526010990143D-05  .515371880341D+04
     .295184000000D+06  .894069671631D-07 -.249223188168D+01 -.931322574615D-08
     .959377741134D+00  .277562500000D+03 -.292984236116D+01 -.837713465557D-08
     .506092509356D-09  .100000000000D+01  .181700000000D+04  .000000000000D+00
     .240000000000D+01  .000000000000D+00  .465661287308D-09  .100000000000D+01
     .289026000000D+06  .400000000000D+01
14 14 11  5  9 59 44.0  .118660740554D-03 -.363797880709D-11  .000000000000D+00
     .000000000000D+00  .109093750000D+03  .446661462386D-08  .153606988318D+01
     .564008951187D-05  .786653463729D-02  .495463609695D-05  .515374431992D+04
     .295184000000D+06 -.219792127609D-06 -.241352089690D+01 -.894069671631D-07
     .968672256562D+00  .285125000000D+03 -.196910793174D+01 -.832034657583D-08
     .452876006961D-09  .100000000000D+01  .181700000000D+04  .000000000000D+00
     .240000000000D+01  .000000000000D+00 -.931322574615D-08  .000000000000D+00
     .289956000000D+06  .400000000000D+01
 8 14 11  5  9 59 28.0  .162040814757D-04  .113686837722D-12  .000000000000D+00
     .300000000000D+01 -.864062500000D+02  .415017287136D-08 -.517578864289D+00
    -.435672700405D-05  .147420555586D-01  .447221100330D-05  .515217871857D+04
     .295168000000D+06  .156462192535D-06 -.131382474079D+01  .171363353729D-06
     .995338333162D+00  .308968750000D+03 -.269103207071D+01 -.823069998455D-08
    -.320013329840D-09  .100000000000D+01  .181700000000D+04  .000000000000D+00
     .240000000000D+01  .630000000000D+02 -.465661287308D-08  .300000000000D+01
     .292956000000D+06  .400000000000D+01
23 14 11  5  9 59 44.0 -.650463625789D-04 -.284217094304D-11  .000000000000D+00
     .300000000000D+01  .113812500000D+03  .489520390489D-08  .415786633925D+00
     .605732202530D-05  .969337101560D-02  .497698783875D-05  .515371321106D+04
     .295184000000D+06  .128522515297D-06 -.248177152148D+01  .251457095146D-06
     .950449844680D+00  .277906250000D+03 -.272070407531D+01 -.855035615665D-08
     .430375069706D-09  .100000000000D+01  .181700000000D+04  .000000000000D+00
     .240000000000D+01  .000000000000D+00 -.200234353542D-07  .300000000000D+01
     .293136000000D+06  .400000000000D+01
 8 14 11  5 11 59 28.0  .162050127983D-04  .113686837722D-12  .000000000000D+00
     .110000000000D+02 -.790937500000D+02  .402266756025D-08  .533531978628D+00
    -.414624810219D-05  .147438776912D-01  .409409403801D-05  .515218223190D+04
     .302368000000D+06  .130385160446D-07 -.131388387926D+01  .244006514549D-06
     .995335969087D+00  .320343750000D+03 -.269105226776D+01 -.821177062464D-08
    -.368586781690D-09  .100000000000D+01  .181700000000D+04  .000000000000D+00
     .240000000000D+01  .630000000000D+02 -.465661287308D-08  .110000000000D+02
     .295206000000D+06  .400000000000D+01
 9 14 11  5 11 59 44.0 -.467989593744D-06 -.659383658785D-11  .000000000000D+00
     .310000000000D+02  .118156250000D+03  .457911931013D-08  .119929224946D+01
     .621937215328D-05  .279712723568D-03  .541657209396D-05  .515371769524D+04
     .302384000000D+06 -.577419996262D-07 -.249229109621D+01  .670552253723D-07
     .959381367708D+00  .274937500000D+03 -.293050024858D+01 -.826963017758D-08
     .397873715894D-09  .100000000000D+01  .181700000000D+04  .000000000000D+00
     .240000000000D+01  .000000000000D+00  .465661287308D-09  .310000000000D+02
     .295206000000D+06  .400000000000D+01
14 14 11  5 11 59 44.0  .118634663522D-03 -.363797880709D-11  .000000000000D+00
     .120000000000D+02  .116468750000D+03  .434625246743D-08  .258624291661D+01
     .599585473537D-05  .786611496005D-02  .503472983837D-05  .515374422836D+04
     .302384000000D+06  .931322574615D-08 -.241357985981D+01 -.109896063805D-06
     .968676544375D+00  .283250000000D+03 -.196914344261D+01 -.810212320024D-08
     .456447584303D-09  .100000000000D+01  .181700000000D+04  .000000000000D+00
     .240000000000D+01  .000000000000D+00 -.931322574615D-08  .120000000000D+02
     .295206000000D+06  .400000000000D+01
23 14 11  5 11 59 44.0 -.650663860142D-04 -.284217094304D-11  .000000000000D+00
     .220000000000D+02  .116937500000D+03  .480627162908D-08  .146576493540D+01
     .621937215328D-05  .969440920744D-02  .578165054321D-05  .515371706009D+04
     .302384000000D+06 -.104308128357D-06 -.248183178786D+01  .143423676491D-06
     .950452325789D+00  .263718750000D+03 -.272052479762D+01 -.846856703552D-08
     .262868092368D-09  .100000000000D+01  .181700000000D+04  .000000000000D+00
     .240000000000D+01  .000000000000D+00 -.200234353542D-07  .220000000000D+02
     .295206000000D+06  .400000000000D+01
 1 14 11  5 12  0  0.0 -.124564394355D-04  .454747350886D-12  .000000000000D+00
     .510000000000D+02 -.420937500000D+02  .502663795108D-08  .466368249515D+00
    -.212900340557D-05  .363199203275D-02  .508688390255D-05  .515366733170D+04
     .302400000000D+06 -.186264514923D-08  .170580414141D+01 -.745058059692D-08
     .960950347348D+00  .277656250000D+03  .447553273887D+00 -.842249368781D-08
    -.494663461862D-09  .100000000000D+01  .181700000000D+04  .000000000000D+00
     .240000000000D+01  .000000000000D+00  .558793544769D-08  .510000000000D+02
     .295206000000D+06  .400000000000D+01
